<xml>
<item>
<COMMENT>GENERATED VIA SPACETRACK.ORG API</COMMENT>
<ORIGINATOR>18 SPCS</ORIGINATOR>
<NORAD_CAT_ID>55428</NORAD_CAT_ID>
<OBJECT_NAME>STARLINK-5064</OBJECT_NAME>
<OBJECT_TYPE>PAYLOAD</OBJECT_TYPE>
<CLASSIFICATION_TYPE>U</CLASSIFICATION_TYPE>
<INTLDES>23014AP</INTLDES>
<EPOCH>2023-11-02 03:07:41</EPOCH>
<EPOCH_MICROSECONDS>414880</EPOCH_MICROSECONDS>
<MEAN_MOTION>14.98312956</MEAN_MOTION>
<ECCENTRICITY>0.0003095</ECCENTRICITY>
<INCLINATION>70</INCLINATION>
<RA_OF_ASC_NODE>89.3811</RA_OF_ASC_NODE>
<ARG_OF_PERICENTER>267.105</ARG_OF_PERICENTER>
<MEAN_ANOMALY>92.9755</MEAN_ANOMALY>
<EPHEMERIS_TYPE>0</EPHEMERIS_TYPE>
<ELEMENT_SET_NO>999</ELEMENT_SET_NO>
<REV_AT_EPOCH>4201</REV_AT_EPOCH>
<BSTAR>0.00022283</BSTAR>
<MEAN_MOTION_DOT>0.00002566</MEAN_MOTION_DOT>
<MEAN_MOTION_DDOT>0</MEAN_MOTION_DDOT>
<FILE>4065664</FILE>
<TLE_LINE0>0 STARLINK-5064</TLE_LINE0>
<TLE_LINE1>1 55428U 23014AP 23306.13034045 .00002566 00000-0 22283-3 0 9997</TLE_LINE1>
<TLE_LINE2>2 55428 70.0000 89.3811 0003095 267.1050 92.9755 14.98312956 42013</TLE_LINE2>
<OBJECT_ID>2023-014AP</OBJECT_ID>
<OBJECT_NUMBER>55428</OBJECT_NUMBER>
<SEMIMAJOR_AXIS>6950.246</SEMIMAJOR_AXIS>
<PERIOD>96.108</PERIOD>
<APOGEE>574.262</APOGEE>
<PERIGEE>569.959</PERIGEE>
<DECAYED>0</DECAYED>
</item>
<item>
<COMMENT>GENERATED VIA SPACETRACK.ORG API</COMMENT>
<ORIGINATOR>18 SPCS</ORIGINATOR>
<NORAD_CAT_ID>56809</NORAD_CAT_ID>
<OBJECT_NAME>STARLINK-6040</OBJECT_NAME>
<OBJECT_TYPE>PAYLOAD</OBJECT_TYPE>
<CLASSIFICATION_TYPE>U</CLASSIFICATION_TYPE>
<INTLDES>23078AU</INTLDES>
<EPOCH>2023-11-02 03:53:55</EPOCH>
<EPOCH_MICROSECONDS>985856</EPOCH_MICROSECONDS>
<MEAN_MOTION>14.98563084</MEAN_MOTION>
<ECCENTRICITY>0.000316</ECCENTRICITY>
<INCLINATION>70</INCLINATION>
<RA_OF_ASC_NODE>349.0032</RA_OF_ASC_NODE>
<ARG_OF_PERICENTER>288.4709</ARG_OF_PERICENTER>
<MEAN_ANOMALY>71.6106</MEAN_ANOMALY>
<EPHEMERIS_TYPE>0</EPHEMERIS_TYPE>
<ELEMENT_SET_NO>999</ELEMENT_SET_NO>
<REV_AT_EPOCH>2434</REV_AT_EPOCH>
<BSTAR>0.0024997</BSTAR>
<MEAN_MOTION_DOT>0.00030042</MEAN_MOTION_DOT>
<MEAN_MOTION_DDOT>0</MEAN_MOTION_DDOT>
<FILE>4065543</FILE>
<TLE_LINE0>0 STARLINK-6040</TLE_LINE0>
<TLE_LINE1>1 56809U 23078AU 23306.16245354 .00030042 00000-0 24997-2 0 9994</TLE_LINE1>
<TLE_LINE2>2 56809 70.0000 349.0032 0003160 288.4709 71.6106 14.98563084 24348</TLE_LINE2>
<OBJECT_ID>2023-078AU</OBJECT_ID>
<OBJECT_NUMBER>56809</OBJECT_NUMBER>
<SEMIMAJOR_AXIS>6949.472</SEMIMAJOR_AXIS>
<PERIOD>96.092</PERIOD>
<APOGEE>573.533</APOGEE>
<PERIGEE>569.141</PERIGEE>
<DECAYED>0</DECAYED>
</item>
<item>
<COMMENT>GENERATED VIA SPACETRACK.ORG API</COMMENT>
<ORIGINATOR>18 SPCS</ORIGINATOR>
<NORAD_CAT_ID>49155</NORAD_CAT_ID>
<OBJECT_NAME>STARLINK-3060</OBJECT_NAME>
<OBJECT_TYPE>PAYLOAD</OBJECT_TYPE>
<CLASSIFICATION_TYPE>U</CLASSIFICATION_TYPE>
<INTLDES>21082AB</INTLDES>
<EPOCH>2023-11-02 03:55:39</EPOCH>
<EPOCH_MICROSECONDS>115488</EPOCH_MICROSECONDS>
<MEAN_MOTION>14.98272363</MEAN_MOTION>
<ECCENTRICITY>0.0002666</ECCENTRICITY>
<INCLINATION>70</INCLINATION>
<RA_OF_ASC_NODE>259.1054</RA_OF_ASC_NODE>
<ARG_OF_PERICENTER>257.9078</ARG_OF_PERICENTER>
<MEAN_ANOMALY>102.1782</MEAN_ANOMALY>
<EPHEMERIS_TYPE>0</EPHEMERIS_TYPE>
<ELEMENT_SET_NO>999</ELEMENT_SET_NO>
<REV_AT_EPOCH>11944</REV_AT_EPOCH>
<BSTAR>-0.00053706</BSTAR>
<MEAN_MOTION_DOT>-0.00006485</MEAN_MOTION_DOT>
<MEAN_MOTION_DDOT>0</MEAN_MOTION_DDOT>
<FILE>4065544</FILE>
<TLE_LINE0>0 STARLINK-3060</TLE_LINE0>
<TLE_LINE1>1 49155U 21082AB 23306.16364717 -.00006485 00000-0 -53706-3 0 9995</TLE_LINE1>
<TLE_LINE2>2 49155 70.0000 259.1054 0002666 257.9078 102.1782 14.98272363119442</TLE_LINE2>
<OBJECT_ID>2021-082AB</OBJECT_ID>
<OBJECT_NUMBER>49155</OBJECT_NUMBER>
<SEMIMAJOR_AXIS>6950.371</SEMIMAJOR_AXIS>
<PERIOD>96.111</PERIOD>
<APOGEE>574.089</APOGEE>
<PERIGEE>570.383</PERIGEE>
<DECAYED>0</DECAYED>
</item>
<item>
<COMMENT>GENERATED VIA SPACETRACK.ORG API</COMMENT>
<ORIGINATOR>18 SPCS</ORIGINATOR>
<NORAD_CAT_ID>49176</NORAD_CAT_ID>
<OBJECT_NAME>STARLINK-3069</OBJECT_NAME>
<OBJECT_TYPE>PAYLOAD</OBJECT_TYPE>
<CLASSIFICATION_TYPE>U</CLASSIFICATION_TYPE>
<INTLDES>21082AY</INTLDES>
<EPOCH>2023-11-02 04:07:34</EPOCH>
<EPOCH_MICROSECONDS>799520</EPOCH_MICROSECONDS>
<MEAN_MOTION>14.9834168</MEAN_MOTION>
<ECCENTRICITY>0.0002406</ECCENTRICITY>
<INCLINATION>70</INCLINATION>
<RA_OF_ASC_NODE>259.079</RA_OF_ASC_NODE>
<ARG_OF_PERICENTER>257.3471</ARG_OF_PERICENTER>
<MEAN_ANOMALY>102.7419</MEAN_ANOMALY>
<EPHEMERIS_TYPE>0</EPHEMERIS_TYPE>
<ELEMENT_SET_NO>999</ELEMENT_SET_NO>
<REV_AT_EPOCH>11836</REV_AT_EPOCH>
<BSTAR>0.000020449</BSTAR>
<MEAN_MOTION_DOT>0.00000151</MEAN_MOTION_DOT>
<MEAN_MOTION_DDOT>0</MEAN_MOTION_DDOT>
<FILE>4065962</FILE>
<TLE_LINE0>0 STARLINK-3069</TLE_LINE0>
<TLE_LINE1>1 49176U 21082AY 23306.17193055 .00000151 00000-0 20449-4 0 9995</TLE_LINE1>
<TLE_LINE2>2 49176 70.0000 259.0790 0002406 257.3471 102.7419 14.98341680118366</TLE_LINE2>
<OBJECT_ID>2021-082AY</OBJECT_ID>
<OBJECT_NUMBER>49176</OBJECT_NUMBER>
<SEMIMAJOR_AXIS>6950.157</SEMIMAJOR_AXIS>
<PERIOD>96.106</PERIOD>
<APOGEE>573.694</APOGEE>
<PERIGEE>570.350</PERIGEE>
<DECAYED>0</DECAYED>
</item>
<item>
<COMMENT>GENERATED VIA SPACETRACK.ORG API</COMMENT>
<ORIGINATOR>18 SPCS</ORIGINATOR>
<NORAD_CAT_ID>56781</NORAD_CAT_ID>
<OBJECT_NAME>STARLINK-5989</OBJECT_NAME>
<OBJECT_TYPE>PAYLOAD</OBJECT_TYPE>
<CLASSIFICATION_TYPE>U</CLASSIFICATION_TYPE>
<INTLDES>23078Q</INTLDES>
<EPOCH>2023-11-02 04:36:08</EPOCH>
<EPOCH_MICROSECONDS>108928</EPOCH_MICROSECONDS>
<MEAN_MOTION>14.98326897</MEAN_MOTION>
<ECCENTRICITY>0.0002681</ECCENTRICITY>
<INCLINATION>70</INCLINATION>
<RA_OF_ASC_NODE>349.109</RA_OF_ASC_NODE>
<ARG_OF_PERICENTER>270.5148</ARG_OF_PERICENTER>
<MEAN_ANOMALY>89.5704</MEAN_ANOMALY>
<EPHEMERIS_TYPE>0</EPHEMERIS_TYPE>
<ELEMENT_SET_NO>999</ELEMENT_SET_NO>
<REV_AT_EPOCH>2434</REV_AT_EPOCH>
<BSTAR>0.000044096</BSTAR>
<MEAN_MOTION_DOT>0.00000433</MEAN_MOTION_DOT>
<MEAN_MOTION_DDOT>0</MEAN_MOTION_DDOT>
<FILE>4065519</FILE>
<TLE_LINE0>0 STARLINK-5989</TLE_LINE0>
<TLE_LINE1>1 56781U 23078Q 23306.19176052 .00000433 00000-0 44096-4 0 9999</TLE_LINE1>
<TLE_LINE2>2 56781 70.0000 349.1090 0002681 270.5148 89.5704 14.98326897 24349</TLE_LINE2>
<OBJECT_ID>2023-078Q</OBJECT_ID>
<OBJECT_NUMBER>56781</OBJECT_NUMBER>
<SEMIMAJOR_AXIS>6950.202</SEMIMAJOR_AXIS>
<PERIOD>96.107</PERIOD>
<APOGEE>573.931</APOGEE>
<PERIGEE>570.204</PERIGEE>
<DECAYED>0</DECAYED>
</item>
<item>
<COMMENT>GENERATED VIA SPACETRACK.ORG API</COMMENT>
<ORIGINATOR>18 SPCS</ORIGINATOR>
<NORAD_CAT_ID>56769</NORAD_CAT_ID>
<OBJECT_NAME>STARLINK-5978</OBJECT_NAME>
<OBJECT_TYPE>PAYLOAD</OBJECT_TYPE>
<CLASSIFICATION_TYPE>U</CLASSIFICATION_TYPE>
<INTLDES>23078C</INTLDES>
<EPOCH>2023-11-02 04:48:28</EPOCH>
<EPOCH_MICROSECONDS>626048</EPOCH_MICROSECONDS>
<MEAN_MOTION>14.98331493</MEAN_MOTION>
<ECCENTRICITY>0.0003067</ECCENTRICITY>
<INCLINATION>70</INCLINATION>
<RA_OF_ASC_NODE>9.0192</RA_OF_ASC_NODE>
<ARG_OF_PERICENTER>265.7183</ARG_OF_PERICENTER>
<MEAN_ANOMALY>94.3626</MEAN_ANOMALY>
<EPHEMERIS_TYPE>0</EPHEMERIS_TYPE>
<ELEMENT_SET_NO>999</ELEMENT_SET_NO>
<REV_AT_EPOCH>2385</REV_AT_EPOCH>
<BSTAR>0.000059598</BSTAR>
<MEAN_MOTION_DOT>0.00000618</MEAN_MOTION_DOT>
<MEAN_MOTION_DDOT>0</MEAN_MOTION_DDOT>
<FILE>4065482</FILE>
<TLE_LINE0>0 STARLINK-5978</TLE_LINE0>
<TLE_LINE1>1 56769U 23078C 23306.20033132 .00000618 00000-0 59598-4 0 9996</TLE_LINE1>
<TLE_LINE2>2 56769 70.0000 9.0192 0003067 265.7183 94.3626 14.98331493 23854</TLE_LINE2>
<OBJECT_ID>2023-078C</OBJECT_ID>
<OBJECT_NUMBER>56769</OBJECT_NUMBER>
<SEMIMAJOR_AXIS>6950.188</SEMIMAJOR_AXIS>
<PERIOD>96.107</PERIOD>
<APOGEE>574.185</APOGEE>
<PERIGEE>569.922</PERIGEE>
<DECAYED>0</DECAYED>
</item>
<item>
<COMMENT>GENERATED VIA SPACETRACK.ORG API</COMMENT>
<ORIGINATOR>18 SPCS</ORIGINATOR>
<NORAD_CAT_ID>49146</NORAD_CAT_ID>
<OBJECT_NAME>STARLINK-3116</OBJECT_NAME>
<OBJECT_TYPE>PAYLOAD</OBJECT_TYPE>
<CLASSIFICATION_TYPE>U</CLASSIFICATION_TYPE>
<INTLDES>21082S</INTLDES>
<EPOCH>2023-11-02 04:55:57</EPOCH>
<EPOCH_MICROSECONDS>715968</EPOCH_MICROSECONDS>
<MEAN_MOTION>14.98351916</MEAN_MOTION>
<ECCENTRICITY>0.0002575</ECCENTRICITY>
<INCLINATION>70</INCLINATION>
<RA_OF_ASC_NODE>279.0025</RA_OF_ASC_NODE>
<ARG_OF_PERICENTER>256.1569</ARG_OF_PERICENTER>
<MEAN_ANOMALY>103.9303</MEAN_ANOMALY>
<EPHEMERIS_TYPE>0</EPHEMERIS_TYPE>
<ELEMENT_SET_NO>999</ELEMENT_SET_NO>
<REV_AT_EPOCH>11904</REV_AT_EPOCH>
<BSTAR>0.00039384</BSTAR>
<MEAN_MOTION_DOT>0.00004612</MEAN_MOTION_DOT>
<MEAN_MOTION_DDOT>0</MEAN_MOTION_DDOT>
<FILE>4065715</FILE>
<TLE_LINE0>0 STARLINK-3116</TLE_LINE0>
<TLE_LINE1>1 49146U 21082S 23306.20552912 .00004612 00000-0 39384-3 0 9990</TLE_LINE1>
<TLE_LINE2>2 49146 70.0000 279.0025 0002575 256.1569 103.9303 14.98351916119042</TLE_LINE2>
<OBJECT_ID>2021-082S</OBJECT_ID>
<OBJECT_NUMBER>49146</OBJECT_NUMBER>
<SEMIMAJOR_AXIS>6950.125</SEMIMAJOR_AXIS>
<PERIOD>96.106</PERIOD>
<APOGEE>573.780</APOGEE>
<PERIGEE>570.200</PERIGEE>
<DECAYED>0</DECAYED>
</item>

</xml>
